{
  "type": "FeatureCollection",
  "features": [
    {
      "type": "Feature",
      "properties": {
        "norad_id": 34010,
        "name": "COSMOS 2251 DEB",
        "group": "cosmos-2251-debris",
        "lat": -61.60315485445108,
        "lon": 119.28951406376643,
        "alt_km": 516.0367704867849,
        "timestamp": "2025-12-20T09:36:02.042528+00:00",
        "meta_object_name": "COSMOS 2251 DEB",
        "meta_object_id": "1993-036GV",
        "meta_epoch": "2025-12-20T03:46:54.180192",
        "meta_mean_motion": 15.19866689,
        "meta_eccentricity": 0.0004459,
        "meta_inclination": 73.9997,
        "meta_ra_of_asc_node": 267.7407,
        "meta_arg_of_pericenter": 60.5998,
        "meta_mean_anomaly": 299.5644,
        "meta_ephemeris_type": 0,
        "meta_classification_type": "U",
        "meta_norad_cat_id": 34010,
        "meta_element_set_no": 999,
        "meta_rev_at_epoch": 89398,
        "meta_bstar": 0.0025252,
        "meta_mean_motion_dot": 0.00054585,
        "meta_mean_motion_ddot": 0,
        "tle_line1": "1 34010U 93036GV  25354.15757153  .00054585  00000+0  25252-2 0  9996",
        "tle_line2": "2 34010  73.9997 267.7407 0004459  60.5998 299.5644 15.19866689893981"
      },
      "geometry": {
        "type": "Point",
        "coordinates": [
          119.28951406376643,
          -61.60315485445108
        ]
      }
    },
    {
      "type": "Feature",
      "properties": {
        "norad_id": 34011,
        "name": "COSMOS 2251 DEB",
        "group": "cosmos-2251-debris",
        "lat": 40.65502678463788,
        "lon": -29.81515276045593,
        "alt_km": 723.4071667053868,
        "timestamp": "2025-12-20T09:36:02.042538+00:00",
        "meta_object_name": "COSMOS 2251 DEB",
        "meta_object_id": "1993-036GW",
        "meta_epoch": "2025-12-20T04:24:32.202720",
        "meta_mean_motion": 14.41801726,
        "meta_eccentricity": 0.0036025,
        "meta_inclination": 74.0145,
        "meta_ra_of_asc_node": 316.3349,
        "meta_arg_of_pericenter": 37.7444,
        "meta_mean_anomaly": 322.6228,
        "meta_ephemeris_type": 0,
        "meta_classification_type": "U",
        "meta_norad_cat_id": 34011,
        "meta_element_set_no": 999,
        "meta_rev_at_epoch": 88023,
        "meta_bstar": 0.00051301,
        "meta_mean_motion_dot": 1.663e-05,
        "meta_mean_motion_ddot": 0,
        "tle_line1": "1 34011U 93036GW  25354.18370605  .00001663  00000+0  51301-3 0  9997",
        "tle_line2": "2 34011  74.0145 316.3349 0036025  37.7444 322.6228 14.41801726880236"
      },
      "geometry": {
        "type": "Point",
        "coordinates": [
          -29.81515276045593,
          40.65502678463788
        ]
      }
    },
    {
      "type": "Feature",
      "properties": {
        "norad_id": 34014,
        "name": "COSMOS 2251 DEB",
        "group": "cosmos-2251-debris",
        "lat": 51.61828811119798,
        "lon": 64.56703750261632,
        "alt_km": 641.9194530021568,
        "timestamp": "2025-12-20T09:36:02.042548+00:00",
        "meta_object_name": "COSMOS 2251 DEB",
        "meta_object_id": "1993-036GZ",
        "meta_epoch": "2025-12-20T03:02:47.774112",
        "meta_mean_motion": 14.73219789,
        "meta_eccentricity": 0.0037363,
        "meta_inclination": 74.0177,
        "meta_ra_of_asc_node": 266.3128,
        "meta_arg_of_pericenter": 43.9051,
        "meta_mean_anomaly": 73.2633,
        "meta_ephemeris_type": 0,
        "meta_classification_type": "U",
        "meta_norad_cat_id": 34014,
        "meta_element_set_no": 999,
        "meta_rev_at_epoch": 89412,
        "meta_bstar": 0.00060132,
        "meta_mean_motion_dot": 3.894e-05,
        "meta_mean_motion_ddot": 0,
        "tle_line1": "1 34014U 93036GZ  25354.12694183  .00003894  00000+0  60132-3 0  9994",
        "tle_line2": "2 34014  74.0177 266.3128 0037363  43.9051  73.2633 14.73219789894121"
      },
      "geometry": {
        "type": "Point",
        "coordinates": [
          64.56703750261632,
          51.61828811119798
        ]
      }
    },
    {
      "type": "Feature",
      "properties": {
        "norad_id": 34015,
        "name": "COSMOS 2251 DEB",
        "group": "cosmos-2251-debris",
        "lat": -61.63942349488066,
        "lon": -3.1553969630015932,
        "alt_km": 684.1109836047226,
        "timestamp": "2025-12-20T09:36:02.042558+00:00",
        "meta_object_name": "COSMOS 2251 DEB",
        "meta_object_id": "1993-036HA",
        "meta_epoch": "2025-12-19T21:42:20.364768",
        "meta_mean_motion": 14.60339912,
        "meta_eccentricity": 0.002096,
        "meta_inclination": 74.0234,
        "meta_ra_of_asc_node": 145.7364,
        "meta_arg_of_pericenter": 242.4136,
        "meta_mean_anomaly": 279.2485,
        "meta_ephemeris_type": 0,
        "meta_classification_type": "U",
        "meta_norad_cat_id": 34015,
        "meta_element_set_no": 999,
        "meta_rev_at_epoch": 88635,
        "meta_bstar": 0.0010062,
        "meta_mean_motion_dot": 4.853e-05,
        "meta_mean_motion_ddot": 0,
        "tle_line1": "1 34015U 93036HA  25353.90440237  .00004853  00000+0  10062-2 0  9991",
        "tle_line2": "2 34015  74.0234 145.7364 0020960 242.4136 279.2485 14.60339912886359"
      },
      "geometry": {
        "type": "Point",
        "coordinates": [
          -3.1553969630015932,
          -61.63942349488066
        ]
      }
    },
    {
      "type": "Feature",
      "properties": {
        "norad_id": 34018,
        "name": "COSMOS 2251 DEB",
        "group": "cosmos-2251-debris",
        "lat": 2.7551190661703693,
        "lon": 79.91283801227706,
        "alt_km": 1025.6306271396443,
        "timestamp": "2025-12-20T09:36:02.042568+00:00",
        "meta_object_name": "COSMOS 2251 DEB",
        "meta_object_id": "1993-036HD",
        "meta_epoch": "2025-12-19T09:36:21.607776",
        "meta_mean_motion": 13.81079174,
        "meta_eccentricity": 0.026337,
        "meta_inclination": 73.8781,
        "meta_ra_of_asc_node": 80.809,
        "meta_arg_of_pericenter": 115.4226,
        "meta_mean_anomaly": 321.5194,
        "meta_ephemeris_type": 0,
        "meta_classification_type": "U",
        "meta_norad_cat_id": 34018,
        "meta_element_set_no": 999,
        "meta_rev_at_epoch": 84749,
        "meta_bstar": 0.00026881,
        "meta_mean_motion_dot": 3.48e-06,
        "meta_mean_motion_ddot": 0,
        "tle_line1": "1 34018U 93036HD  25353.40025009  .00000348  00000+0  26881-3 0  9997",
        "tle_line2": "2 34018  73.8781  80.8090 0263370 115.4226 321.5194 13.81079174847497"
      },
      "geometry": {
        "type": "Point",
        "coordinates": [
          79.91283801227706,
          2.7551190661703693
        ]
      }
    },
    {
      "type": "Feature",
      "properties": {
        "norad_id": 34019,
        "name": "COSMOS 2251 DEB",
        "group": "cosmos-2251-debris",
        "lat": 31.34775357747592,
        "lon": -153.44500541091904,
        "alt_km": 760.5439623094735,
        "timestamp": "2025-12-20T09:36:02.042578+00:00",
        "meta_object_name": "COSMOS 2251 DEB",
        "meta_object_id": "1993-036HE",
        "meta_epoch": "2025-12-20T02:20:36.590208",
        "meta_mean_motion": 14.3396801,
        "meta_eccentricity": 0.0062446,
        "meta_inclination": 73.9534,
        "meta_ra_of_asc_node": 37.2082,
        "meta_arg_of_pericenter": 217.3454,
        "meta_mean_anomaly": 170.1183,
        "meta_ephemeris_type": 0,
        "meta_classification_type": "U",
        "meta_norad_cat_id": 34019,
        "meta_element_set_no": 999,
        "meta_rev_at_epoch": 87626,
        "meta_bstar": 0.00054757,
        "meta_mean_motion_dot": 1.535e-05,
        "meta_mean_motion_ddot": 0,
        "tle_line1": "1 34019U 93036HE  25354.09764572  .00001535  00000+0  54757-3 0  9991",
        "tle_line2": "2 34019  73.9534  37.2082 0062446 217.3454 170.1183 14.33968010876265"
      },
      "geometry": {
        "type": "Point",
        "coordinates": [
          -153.44500541091904,
          31.34775357747592
        ]
      }
    },
    {
      "type": "Feature",
      "properties": {
        "norad_id": 34021,
        "name": "COSMOS 2251 DEB",
        "group": "cosmos-2251-debris",
        "lat": -30.632454709444005,
        "lon": 105.68622279195746,
        "alt_km": 726.0961861648102,
        "timestamp": "2025-12-20T09:36:02.042588+00:00",
        "meta_object_name": "COSMOS 2251 DEB",
        "meta_object_id": "1993-036HG",
        "meta_epoch": "2025-12-20T02:16:22.461024",
        "meta_mean_motion": 14.4997182,
        "meta_eccentricity": 0.0020972,
        "meta_inclination": 74.0359,
        "meta_ra_of_asc_node": 116.0186,
        "meta_arg_of_pericenter": 259.3851,
        "meta_mean_anomaly": 275.4022,
        "meta_ephemeris_type": 0,
        "meta_classification_type": "U",
        "meta_norad_cat_id": 34021,
        "meta_element_set_no": 999,
        "meta_rev_at_epoch": 88736,
        "meta_bstar": 0.00032124,
        "meta_mean_motion_dot": 1.219e-05,
        "meta_mean_motion_ddot": 0,
        "tle_line1": "1 34021U 93036HG  25354.09470441  .00001219  00000+0  32124-3 0  9996",
        "tle_line2": "2 34021  74.0359 116.0186 0020972 259.3851 275.4022 14.49971820887365"
      },
      "geometry": {
        "type": "Point",
        "coordinates": [
          105.68622279195746,
          -30.632454709444005
        ]
      }
    }
  ]
}